{
  "type": "FeatureCollection",
  "features": [
    {
      "type": "Feature",
      "properties": {
        "norad_id": 30274,
        "name": "FENGYUN 1C DEB",
        "group": "fengyun-1c-debris",
        "lat": -60.91657572575139,
        "lon": 141.11125212799567,
        "alt_km": 727.8000789054304,
        "timestamp": "2025-12-20T11:30:28.652253+00:00",
        "meta_object_name": "FENGYUN 1C DEB",
        "meta_object_id": "1999-025YK",
        "meta_epoch": "2025-12-18T22:20:12.989760",
        "meta_mean_motion": 14.5174566,
        "meta_eccentricity": 0.00048201,
        "meta_inclination": 99.3017,
        "meta_ra_of_asc_node": 122.2612,
        "meta_arg_of_pericenter": 198.6084,
        "meta_mean_anomaly": 289.1948,
        "meta_ephemeris_type": 0,
        "meta_classification_type": "U",
        "meta_norad_cat_id": 30274,
        "meta_element_set_no": 999,
        "meta_rev_at_epoch": 98300,
        "meta_bstar": 0.001872423,
        "meta_mean_motion_dot": 7.479e-05,
        "meta_mean_motion_ddot": 0,
        "tle_line1": "1 30274U 99025YK  25352.93070590  .00007479  00000+0  18724-2 0  9991",
        "tle_line2": "2 30274  99.3017 122.2612 0004820 198.6084 289.1948 14.51745660983003"
      },
      "geometry": {
        "type": "Point",
        "coordinates": [
          141.11125212799567,
          -60.91657572575139
        ]
      }
    },
    {
      "type": "Feature",
      "properties": {
        "norad_id": 30275,
        "name": "FENGYUN 1C DEB",
        "group": "fengyun-1c-debris",
        "lat": 69.57422927706634,
        "lon": 54.80341545989426,
        "alt_km": 735.1525689171931,
        "timestamp": "2025-12-20T11:30:28.652263+00:00",
        "meta_object_name": "FENGYUN 1C DEB",
        "meta_object_id": "1999-025YL",
        "meta_epoch": "2025-12-20T04:40:14.226240",
        "meta_mean_motion": 14.4539576,
        "meta_eccentricity": 0.0039854,
        "meta_inclination": 98.6281,
        "meta_ra_of_asc_node": 78.5753,
        "meta_arg_of_pericenter": 164.9737,
        "meta_mean_anomaly": 225.3907,
        "meta_ephemeris_type": 0,
        "meta_classification_type": "U",
        "meta_norad_cat_id": 30275,
        "meta_element_set_no": 999,
        "meta_rev_at_epoch": 98192,
        "meta_bstar": 0.0013992,
        "meta_mean_motion_dot": 4.927e-05,
        "meta_mean_motion_ddot": 0,
        "tle_line1": "1 30275U 99025YL  25354.19460910  .00004927  00000+0  13992-2 0  9998",
        "tle_line2": "2 30275  98.6281  78.5753 0039854 164.9737 225.3907 14.45395760981925"
      },
      "geometry": {
        "type": "Point",
        "coordinates": [
          54.80341545989426,
          69.57422927706634
        ]
      }
    },
    {
      "type": "Feature",
      "properties": {
        "norad_id": 30276,
        "name": "FENGYUN 1C DEB",
        "group": "fengyun-1c-debris",
        "lat": -44.266103426906376,
        "lon": -122.5955795688948,
        "alt_km": 824.1043766560551,
        "timestamp": "2025-12-20T11:30:28.652273+00:00",
        "meta_object_name": "FENGYUN 1C DEB",
        "meta_object_id": "1999-025YM",
        "meta_epoch": "2025-12-20T03:43:42.086208",
        "meta_mean_motion": 14.2706619,
        "meta_eccentricity": 0.002431,
        "meta_inclination": 98.8593,
        "meta_ra_of_asc_node": 65.8204,
        "meta_arg_of_pericenter": 70.0933,
        "meta_mean_anomaly": 290.2863,
        "meta_ephemeris_type": 0,
        "meta_classification_type": "U",
        "meta_norad_cat_id": 30276,
        "meta_element_set_no": 999,
        "meta_rev_at_epoch": 97636,
        "meta_bstar": 0.00084714,
        "meta_mean_motion_dot": 2.025e-05,
        "meta_mean_motion_ddot": 0,
        "tle_line1": "1 30276U 99025YM  25354.15534822  .00002025  00000+0  84714-3 0  9997",
        "tle_line2": "2 30276  98.8593  65.8204 0024310  70.0933 290.2863 14.27066190976366"
      },
      "geometry": {
        "type": "Point",
        "coordinates": [
          -122.5955795688948,
          -44.266103426906376
        ]
      }
    },
    {
      "type": "Feature",
      "properties": {
        "norad_id": 30277,
        "name": "FENGYUN 1C DEB",
        "group": "fengyun-1c-debris",
        "lat": -75.85827293579912,
        "lon": 104.00962705407323,
        "alt_km": 904.8457018512836,
        "timestamp": "2025-12-20T11:30:28.652283+00:00",
        "meta_object_name": "FENGYUN 1C DEB",
        "meta_object_id": "1999-025YN",
        "meta_epoch": "2025-12-19T16:13:27.575040",
        "meta_mean_motion": 14.13611169,
        "meta_eccentricity": 0.012406,
        "meta_inclination": 98.9729,
        "meta_ra_of_asc_node": 64.3678,
        "meta_arg_of_pericenter": 158.3816,
        "meta_mean_anomaly": 354.7763,
        "meta_ephemeris_type": 0,
        "meta_classification_type": "U",
        "meta_norad_cat_id": 30277,
        "meta_element_set_no": 999,
        "meta_rev_at_epoch": 96887,
        "meta_bstar": 0.00090874,
        "meta_mean_motion_dot": 1.8e-05,
        "meta_mean_motion_ddot": 0,
        "tle_line1": "1 30277U 99025YN  25353.67601360  .00001800  00000+0  90874-3 0  9990",
        "tle_line2": "2 30277  98.9729  64.3678 0124060 158.3816 354.7763 14.13611169968870"
      },
      "geometry": {
        "type": "Point",
        "coordinates": [
          104.00962705407323,
          -75.85827293579912
        ]
      }
    },
    {
      "type": "Feature",
      "properties": {
        "norad_id": 30279,
        "name": "FENGYUN 1C DEB",
        "group": "fengyun-1c-debris",
        "lat": 10.815701499833168,
        "lon": -72.26104167932886,
        "alt_km": 692.8413837866483,
        "timestamp": "2025-12-20T11:30:28.652293+00:00",
        "meta_object_name": "FENGYUN 1C DEB",
        "meta_object_id": "1999-025YQ",
        "meta_epoch": "2025-12-19T18:43:15.057696",
        "meta_mean_motion": 14.23125964,
        "meta_eccentricity": 0.02198321,
        "meta_inclination": 99.1508,
        "meta_ra_of_asc_node": 288.7763,
        "meta_arg_of_pericenter": 52.6135,
        "meta_mean_anomaly": 338.5131,
        "meta_ephemeris_type": 0,
        "meta_classification_type": "U",
        "meta_norad_cat_id": 30279,
        "meta_element_set_no": 999,
        "meta_rev_at_epoch": 97711,
        "meta_bstar": 0.00056615432,
        "meta_mean_motion_dot": 1.588e-05,
        "meta_mean_motion_ddot": 0,
        "tle_line1": "1 30279U 99025YQ  25353.78003539  .00001588  00000+0  56615-3 0  9996",
        "tle_line2": "2 30279  99.1508 288.7763 0219832  52.6135 338.5131 14.23125964977119"
      },
      "geometry": {
        "type": "Point",
        "coordinates": [
          -72.26104167932886,
          10.815701499833168
        ]
      }
    },
    {
      "type": "Feature",
      "properties": {
        "norad_id": 30280,
        "name": "FENGYUN 1C DEB",
        "group": "fengyun-1c-debris",
        "lat": 8.641477128735511,
        "lon": 164.8786665929189,
        "alt_km": 943.605975618616,
        "timestamp": "2025-12-20T11:30:28.652304+00:00",
        "meta_object_name": "FENGYUN 1C DEB",
        "meta_object_id": "1999-025YR",
        "meta_epoch": "2025-12-18T22:53:02.635008",
        "meta_mean_motion": 13.98331723,
        "meta_eccentricity": 0.00801608,
        "meta_inclination": 98.7749,
        "meta_ra_of_asc_node": 342.0739,
        "meta_arg_of_pericenter": 312.2074,
        "meta_mean_anomaly": 101.9456,
        "meta_ephemeris_type": 0,
        "meta_classification_type": "U",
        "meta_norad_cat_id": 30280,
        "meta_element_set_no": 999,
        "meta_rev_at_epoch": 96493,
        "meta_bstar": 5.3519479e-05,
        "meta_mean_motion_dot": 3.6e-07,
        "meta_mean_motion_ddot": 0,
        "tle_line1": "1 30280U 99025YR  25352.95350272  .00000036  00000+0  53519-4 0  9993",
        "tle_line2": "2 30280  98.7749 342.0739 0080160 312.2074 101.9456 13.98331723964938"
      },
      "geometry": {
        "type": "Point",
        "coordinates": [
          164.8786665929189,
          8.641477128735511
        ]
      }
    },
    {
      "type": "Feature",
      "properties": {
        "norad_id": 30281,
        "name": "FENGYUN 1C DEB",
        "group": "fengyun-1c-debris",
        "lat": 11.259533727035638,
        "lon": -17.668436583444464,
        "alt_km": 877.7704729952511,
        "timestamp": "2025-12-20T11:30:28.652314+00:00",
        "meta_object_name": "FENGYUN 1C DEB",
        "meta_object_id": "1999-025YS",
        "meta_epoch": "2025-12-19T21:58:30.443232",
        "meta_mean_motion": 14.10480532,
        "meta_eccentricity": 0.0028122,
        "meta_inclination": 98.7573,
        "meta_ra_of_asc_node": 343.5409,
        "meta_arg_of_pericenter": 216.1399,
        "meta_mean_anomaly": 173.6664,
        "meta_ephemeris_type": 0,
        "meta_classification_type": "U",
        "meta_norad_cat_id": 30281,
        "meta_element_set_no": 999,
        "meta_rev_at_epoch": 97322,
        "meta_bstar": 0.00019804,
        "meta_mean_motion_dot": 3.11e-06,
        "meta_mean_motion_ddot": 0,
        "tle_line1": "1 30281U 99025YS  25353.91563013  .00000311  00000+0  19804-3 0  9994",
        "tle_line2": "2 30281  98.7573 343.5409 0028122 216.1399 173.6664 14.10480532973223"
      },
      "geometry": {
        "type": "Point",
        "coordinates": [
          -17.668436583444464,
          11.259533727035638
        ]
      }
    }
  ]
}